[{"OBJECT_NAME":"STARLINK-31412","OBJECT_ID":"2024-064N","EPOCH":"2026-03-09T22:25:53.365152","MEAN_MOTION":15.27575254,"ECCENTRICITY":9.531e-5,"INCLINATION":43.0041,"RA_OF_ASC_NODE":54.7488,"ARG_OF_PERICENTER":254.2755,"MEAN_ANOMALY":105.7991,"EPHEMERIS_TYPE":0,"CLASSIFICATION_TYPE":"U","NORAD_CAT_ID":59410,"ELEMENT_SET_NO":999,"REV_AT_EPOCH":10926,"BSTAR":8.75813e-7,"MEAN_MOTION_DOT":-2.38e-6,"MEAN_MOTION_DDOT":0},{"OBJECT_NAME":"DMSP 5D-2 F14 DEB","OBJECT_ID":"1997-012G","EPOCH":"2026-03-09T18:05:19.087296","MEAN_MOTION":15.2878374,"ECCENTRICITY":0.00491251,"INCLINATION":99.2047,"RA_OF_ASC_NODE":151.8456,"ARG_OF_PERICENTER":247.1908,"MEAN_ANOMALY":112.4133,"EPHEMERIS_TYPE":0,"CLASSIFICATION_TYPE":"U","NORAD_CAT_ID":62936,"ELEMENT_SET_NO":999,"REV_AT_EPOCH":6425,"BSTAR":0.05046686,"MEAN_MOTION_DOT":0.01624988,"MEAN_MOTION_DDOT":0}]
